start=new Date('2021-10-19T00:00:00.000Z').valueOf();
sats=[{"REV_AT_EPOCH":"3076","OBJECT_ID":"2021-027AT","DECAY_DATE":null,"INCLINATION":"53.0555","RCS_SIZE":"LARGE","APOAPSIS":"548.382","TLE_LINE1":"1 48133U 21027AT  21291.37989432  .00002039  00000-0  15577-3 0  9993","TLE_LINE2":"2 48133  53.0555 169.1517 0001666  73.0447 287.0724 15.06395181 30763","CLASSIFICATION_TYPE":"U","NORAD_CAT_ID":"48133","TIME_SYSTEM":"UTC","ELEMENT_SET_NO":"999","MEAN_ANOMALY":"287.0724","ARG_OF_PERICENTER":"73.0447","FILE":"3170121","SITE":"AFETR","MEAN_MOTION_DDOT":"0.0000000000000","MEAN_MOTION_DOT":"0.00002039","ECCENTRICITY":"0.00016660","GP_ID":"187504602","OBJECT_TYPE":"PAYLOAD","OBJECT_NAME":"STARLINK-2475","REF_FRAME":"TEME","EPHEMERIS_TYPE":"0","MEAN_MOTION":"15.06395181","SEMIMAJOR_AXIS":"6925.363","PERIOD":"95.592","EPOCH":"2021-10-18T09:07:02.869248","BSTAR":"0.00015577000000","COUNTRY_CODE":"US","LAUNCH_DATE":"2021-04-07","CENTER_NAME":"EARTH","RA_OF_ASC_NODE":"169.1517","PERIAPSIS":"546.075","MEAN_ELEMENT_THEORY":"SGP4"},{"RA_OF_ASC_NODE":"169.2162","PERIAPSIS":"546.033","MEAN_ELEMENT_THEORY":"SGP4","CENTER_NAME":"EARTH","LAUNCH_DATE":"2021-04-07","COUNTRY_CODE":"US","BSTAR":"0.00012403000000","EPOCH":"2021-10-18T08:45:48.386304","SEMIMAJOR_AXIS":"6925.365","PERIOD":"95.592","EPHEMERIS_TYPE":"0","REF_FRAME":"TEME","MEAN_MOTION":"15.06394778","OBJECT_TYPE":"PAYLOAD","OBJECT_NAME":"STARLINK-2476","MEAN_MOTION_DOT":"0.00001566","MEAN_MOTION_DDOT":"0.0000000000000","GP_ID":"187503353","ECCENTRICITY":"0.00017280","FILE":"3170121","SITE":"AFETR","ARG_OF_PERICENTER":"71.1637","MEAN_ANOMALY":"288.9539","TIME_SYSTEM":"UTC","ELEMENT_SET_NO":"999","NORAD_CAT_ID":"48134","CLASSIFICATION_TYPE":"U","TLE_LINE2":"2 48134  53.0555 169.2162 0001728  71.1637 288.9539 15.06394778 30754","TLE_LINE1":"1 48134U 21027AU  21291.36514336  .00001566  00000-0  12403-3 0  9999","APOAPSIS":"548.426","INCLINATION":"53.0555","DECAY_DATE":null,"RCS_SIZE":"LARGE","REV_AT_EPOCH":"3075","OBJECT_ID":"2021-027AU"},{"CENTER_NAME":"EARTH","LAUNCH_DATE":"2021-04-07","RA_OF_ASC_NODE":"173.9840","PERIAPSIS":"545.998","MEAN_ELEMENT_THEORY":"SGP4","SEMIMAJOR_AXIS":"6925.336","PERIOD":"95.592","COUNTRY_CODE":"US","BSTAR":"0.00010170000000","EPOCH":"2021-10-18T10:00:42.455520","OBJECT_TYPE":"PAYLOAD","OBJECT_NAME":"STARLINK-2478","REF_FRAME":"TEME","EPHEMERIS_TYPE":"0","MEAN_MOTION":"15.06403939","FILE":"3170121","SITE":"AFETR","MEAN_MOTION_DDOT":"0.0000000000000","MEAN_MOTION_DOT":"0.00001234","ECCENTRICITY":"0.00017380","GP_ID":"187503603","TIME_SYSTEM":"UTC","ELEMENT_SET_NO":"999","MEAN_ANOMALY":"300.5818","ARG_OF_PERICENTER":"59.5342","CLASSIFICATION_TYPE":"U","NORAD_CAT_ID":"48135","APOAPSIS":"548.405","TLE_LINE2":"2 48135  53.0550 173.9840 0001738  59.5342 300.5818 15.06403939 30693","TLE_LINE1":"1 48135U 21027AV  21291.41715805  .00001234  00000-0  10170-3 0  9991","OBJECT_ID":"2021-027AV","REV_AT_EPOCH":"3069","INCLINATION":"53.0550","DECAY_DATE":null,"RCS_SIZE":"LARGE"},{"APOAPSIS":"548.466","TLE_LINE1":"1 48136U 21027AW  21291.39093267  .00001563  00000-0  12384-3 0  9994","TLE_LINE2":"2 48136  53.0548 169.0941 0001813  78.0898 282.0294 15.06401115 30769","REV_AT_EPOCH":"3076","OBJECT_ID":"2021-027AW","RCS_SIZE":"LARGE","DECAY_DATE":null,"INCLINATION":"53.0548","TIME_SYSTEM":"UTC","ELEMENT_SET_NO":"999","MEAN_ANOMALY":"282.0294","ARG_OF_PERICENTER":"78.0898","CLASSIFICATION_TYPE":"U","NORAD_CAT_ID":"48136","OBJECT_NAME":"STARLINK-2479","OBJECT_TYPE":"PAYLOAD","MEAN_MOTION":"15.06401115","EPHEMERIS_TYPE":"0","REF_FRAME":"TEME","SITE":"AFETR","FILE":"3170121","ECCENTRICITY":"0.00018130","GP_ID":"187504355","MEAN_MOTION_DDOT":"0.0000000000000","MEAN_MOTION_DOT":"0.00001563","LAUNCH_DATE":"2021-04-07","CENTER_NAME":"EARTH","MEAN_ELEMENT_THEORY":"SGP4","RA_OF_ASC_NODE":"169.0941","PERIAPSIS":"545.955","PERIOD":"95.592","SEMIMAJOR_AXIS":"6925.345","BSTAR":"0.00012384000000","EPOCH":"2021-10-18T09:22:56.582688","COUNTRY_CODE":"US"},{"ELEMENT_SET_NO":"999","TIME_SYSTEM":"UTC","ARG_OF_PERICENTER":"67.2122","MEAN_ANOMALY":"292.9059","CLASSIFICATION_TYPE":"U","NORAD_CAT_ID":"48137","APOAPSIS":"548.484","TLE_LINE2":"2 48137  53.0476 150.4891 0001820  67.2122 292.9059 15.06396888 30990","TLE_LINE1":"1 48137U 21027AX  21291.08590271  .00001892  00000-0  14593-3 0  9997","OBJECT_ID":"2021-027AX","REV_AT_EPOCH":"3099","RCS_SIZE":"LARGE","INCLINATION":"53.0476","DECAY_DATE":null,"CENTER_NAME":"EARTH","LAUNCH_DATE":"2021-04-07","MEAN_ELEMENT_THEORY":"SGP4","PERIAPSIS":"545.963","RA_OF_ASC_NODE":"150.4891","SEMIMAJOR_AXIS":"6925.358","PERIOD":"95.592","COUNTRY_CODE":"US","EPOCH":"2021-10-18T02:03:41.994144","BSTAR":"0.00014593000000","OBJECT_NAME":"STARLINK-2480","OBJECT_TYPE":"PAYLOAD","MEAN_MOTION":"15.06396888","EPHEMERIS_TYPE":"0","REF_FRAME":"TEME","SITE":"AFETR","FILE":"3170121","GP_ID":"187505102","ECCENTRICITY":"0.00018200","MEAN_MOTION_DDOT":"0.0000000000000","MEAN_MOTION_DOT":"0.00001892"},{"SEMIMAJOR_AXIS":"6925.346","PERIOD":"95.592","EPOCH":"2021-10-18T09:01:42.685536","BSTAR":"0.00033581000000","COUNTRY_CODE":"US","LAUNCH_DATE":"2021-04-07","CENTER_NAME":"EARTH","MEAN_ELEMENT_THEORY":"SGP4","PERIAPSIS":"546.068","RA_OF_ASC_NODE":"169.1704","SITE":"AFETR","FILE":"3170121","GP_ID":"187503853","ECCENTRICITY":"0.00016500","MEAN_MOTION_DOT":"0.00004724","MEAN_MOTION_DDOT":"0.0000000000000","OBJECT_NAME":"STARLINK-2481","OBJECT_TYPE":"PAYLOAD","MEAN_MOTION":"15.06400952","REF_FRAME":"TEME","EPHEMERIS_TYPE":"0","CLASSIFICATION_TYPE":"U","NORAD_CAT_ID":"48138","ELEMENT_SET_NO":"999","TIME_SYSTEM":"UTC","ARG_OF_PERICENTER":"66.7304","MEAN_ANOMALY":"293.3858","OBJECT_ID":"2021-027AY","REV_AT_EPOCH":"3076","RCS_SIZE":"LARGE","DECAY_DATE":null,"INCLINATION":"53.0556","APOAPSIS":"548.353","TLE_LINE1":"1 48138U 21027AY  21291.37618849  .00004724  00000-0  33581-3 0  9997","TLE_LINE2":"2 48138  53.0556 169.1704 0001650  66.7304 293.3858 15.06400952 30762"},{"APOAPSIS":"548.573","TLE_LINE1":"1 48139U 21027AZ  21291.63238115  .00001573  00000-0  12451-3 0  9993","TLE_LINE2":"2 48139  53.0542 148.0114 0001942  74.2409 285.8794 15.06395223 31088","OBJECT_ID":"2021-027AZ","REV_AT_EPOCH":"3108","RCS_SIZE":"LARGE","DECAY_DATE":null,"INCLINATION":"53.0542","ELEMENT_SET_NO":"999","TIME_SYSTEM":"UTC","MEAN_ANOMALY":"285.8794","ARG_OF_PERICENTER":"74.2409","CLASSIFICATION_TYPE":"U","NORAD_CAT_ID":"48139","OBJECT_NAME":"STARLINK-2482","OBJECT_TYPE":"PAYLOAD","MEAN_MOTION":"15.06395223","REF_FRAME":"TEME","EPHEMERIS_TYPE":"0","SITE":"AFETR","FILE":"3170620","GP_ID":"187537745","ECCENTRICITY":"0.00019420","MEAN_MOTION_DDOT":"0.0000000000000","MEAN_MOTION_DOT":"0.00001573","LAUNCH_DATE":"2021-04-07","CENTER_NAME":"EARTH","MEAN_ELEMENT_THEORY":"SGP4","PERIAPSIS":"545.883","RA_OF_ASC_NODE":"148.0114","PERIOD":"95.592","SEMIMAJOR_AXIS":"6925.363","BSTAR":"0.00012451000000","EPOCH":"2021-10-18T15:10:37.731360","COUNTRY_CODE":"US"},{"EPHEMERIS_TYPE":"0","REF_FRAME":"TEME","MEAN_MOTION":"15.06413038","OBJECT_TYPE":"PAYLOAD","OBJECT_NAME":"STARLINK-2483","MEAN_MOTION_DOT":"0.00001754","MEAN_MOTION_DDOT":"0.0000000000000","GP_ID":"187504855","ECCENTRICITY":"0.00015550","FILE":"3170121","SITE":"AFETR","PERIAPSIS":"546.097","RA_OF_ASC_NODE":"169.0503","MEAN_ELEMENT_THEORY":"SGP4","LAUNCH_DATE":"2021-04-07","CENTER_NAME":"EARTH","EPOCH":"2021-10-18T09:37:29.796384","BSTAR":"0.00013659000000","COUNTRY_CODE":"US","PERIOD":"95.591","SEMIMAJOR_AXIS":"6925.309","TLE_LINE1":"1 48140U 21027BA  21291.40103931  .00001754  00000-0  13659-3 0  9999","TLE_LINE2":"2 48140  53.0550 169.0503 0001555  68.8720 291.2435 15.06413038 30761","APOAPSIS":"548.250","DECAY_DATE":null,"INCLINATION":"53.0550","RCS_SIZE":"LARGE","OBJECT_ID":"2021-027BA","REV_AT_EPOCH":"3076","ARG_OF_PERICENTER":"68.8720","MEAN_ANOMALY":"291.2435","ELEMENT_SET_NO":"999","TIME_SYSTEM":"UTC","NORAD_CAT_ID":"48140","CLASSIFICATION_TYPE":"U"},{"APOAPSIS":"548.530","TLE_LINE2":"2 48141  53.0562 168.0671 0001882  64.0390 296.0792 15.06395577 30816","TLE_LINE1":"1 48141U 21027BB  21291.62315978  .00001300  00000-0  10615-3 0  9996","REV_AT_EPOCH":"3081","OBJECT_ID":"2021-027BB","INCLINATION":"53.0562","DECAY_DATE":null,"RCS_SIZE":"LARGE","ELEMENT_SET_NO":"999","TIME_SYSTEM":"UTC","ARG_OF_PERICENTER":"64.0390","MEAN_ANOMALY":"296.0792","CLASSIFICATION_TYPE":"U","NORAD_CAT_ID":"48141","OBJECT_TYPE":"PAYLOAD","OBJECT_NAME":"STARLINK-2484","EPHEMERIS_TYPE":"0","REF_FRAME":"TEME","MEAN_MOTION":"15.06395577","FILE":"3170620","SITE":"AFETR","MEAN_MOTION_DDOT":"0.0000000000000","MEAN_MOTION_DOT":"0.00001300","GP_ID":"187536744","ECCENTRICITY":"0.00018820","CENTER_NAME":"EARTH","LAUNCH_DATE":"2021-04-07","RA_OF_ASC_NODE":"168.0671","PERIAPSIS":"545.924","MEAN_ELEMENT_THEORY":"SGP4","SEMIMAJOR_AXIS":"6925.362","PERIOD":"95.592","COUNTRY_CODE":"US","BSTAR":"0.00010615000000","EPOCH":"2021-10-18T14:57:21.004992"},{"SITE":"AFETR","FILE":"3170620","ECCENTRICITY":"0.00020650","GP_ID":"187536994","MEAN_MOTION_DDOT":"0.0000000000000","MEAN_MOTION_DOT":"0.00001467","OBJECT_NAME":"STARLINK-2485","OBJECT_TYPE":"PAYLOAD","MEAN_MOTION":"15.06397038","REF_FRAME":"TEME","EPHEMERIS_TYPE":"0","PERIOD":"95.592","SEMIMAJOR_AXIS":"6925.358","EPOCH":"2021-10-18T15:05:18.985344","BSTAR":"0.00011738000000","COUNTRY_CODE":"US","LAUNCH_DATE":"2021-04-07","CENTER_NAME":"EARTH","MEAN_ELEMENT_THEORY":"SGP4","RA_OF_ASC_NODE":"148.0404","PERIAPSIS":"545.793","REV_AT_EPOCH":"3108","OBJECT_ID":"2021-027BC","RCS_SIZE":"LARGE","DECAY_DATE":null,"INCLINATION":"53.0559","APOAPSIS":"548.653","TLE_LINE1":"1 48142U 21027BC  21291.62869196  .00001467  00000-0  11738-3 0  9994","TLE_LINE2":"2 48142  53.0559 148.0404 0002065  70.3579 289.7632 15.06397038 31084","CLASSIFICATION_TYPE":"U","NORAD_CAT_ID":"48142","ELEMENT_SET_NO":"999","TIME_SYSTEM":"UTC","ARG_OF_PERICENTER":"70.3579","MEAN_ANOMALY":"289.7632"}];
